RADUGA 4 [-]            
1 10987U 78073A   17345.08036009  .00000125  00000-0  00000+0 0  9993
2 10987  11.9035 317.0865 0013927 305.6132 243.6902  1.00275336 88401
